[{"OBJECT_NAME":"STARLINK-5347","OBJECT_ID":"2023-090AN","EPOCH":"2026-03-09T22:00:01.999584","MEAN_MOTION":15.10072619,"ECCENTRICITY":0.00014507,"INCLINATION":43.0004,"RA_OF_ASC_NODE":260.5054,"ARG_OF_PERICENTER":304.2293,"MEAN_ANOMALY":152.4326,"EPHEMERIS_TYPE":0,"CLASSIFICATION_TYPE":"U","NORAD_CAT_ID":57137,"ELEMENT_SET_NO":999,"REV_AT_EPOCH":573,"BSTAR":0.0065092627,"MEAN_MOTION_DOT":0.00109267,"MEAN_MOTION_DDOT":0},{"OBJECT_NAME":"CZ-6A DEB","OBJECT_ID":"2022-151DV","EPOCH":"2026-03-09T19:16:59.107296","MEAN_MOTION":15.22406517,"ECCENTRICITY":0.00445255,"INCLINATION":98.4509,"RA_OF_ASC_NODE":160.1888,"ARG_OF_PERICENTER":355.6495,"MEAN_ANOMALY":4.4345,"EPHEMERIS_TYPE":0,"CLASSIFICATION_TYPE":"U","NORAD_CAT_ID":54397,"ELEMENT_SET_NO":999,"REV_AT_EPOCH":17880,"BSTAR":0.0035436228,"MEAN_MOTION_DOT":0.00084931,"MEAN_MOTION_DDOT":0}]
